1 32711U 08012A   21040.20533070  .00000062  00000-0  00000-0 0  9990
2 32711  54.5508 227.9673 0145719 225.7820 133.0240  2.00571204 94582
1 32711U 08012A   21041.20243813  .00000047  00000-0  00000-0 0  9997
2 32711  54.5507 227.9272 0145765 225.7853 133.0139  2.00571277 94603
1 32711U 08012A   21041.20243821  .00000047  00000-0  00000-0 0  9996
2 32711  54.5507 227.9272 0145763 225.7858 133.0134  2.00571271 94605
1 32711U 08012A   21042.19954523  .00000034  00000-0  00000-0 0  9999
2 32711  54.5505 227.8872 0145806 225.7910 133.0013  2.00571330 94629
1 32711U 08012A   21042.19954531  .00000034  00000-0  00000-0 0  9998
2 32711  54.5505 227.8872 0145803 225.7916 133.0007  2.00571326 94620
1 32711U 08012A   21043.19665315  .00000025  00000-0  00000-0 0  9998
2 32711  54.5503 227.8471 0145844 225.7995 132.9865  2.00571371 94647
1 32711U 08012A   21043.69520747  .00000023  00000-0  00000-0 0  9990
2 32711  54.5502 227.8271 0145861 225.8068 132.9764  2.00571385 94659
1 32711U 08012A   21043.69520754  .00000023  00000-0  00000-0 0  9998
2 32711  54.5502 227.8271 0145873 225.8020 132.9812  2.00571404 94656
1 32711U 08012A   21044.69231803  .00000024  00000-0  00000-0 0  9994
2 32711  54.5500 227.7870 0145911 225.8139 132.9651  2.00571435 94679
1 32711U 08012A   21045.19087432  .00000026  00000-0  00000-0 0  9999
2 32711  54.5500 227.7670 0145948 225.8139 132.9636  2.00571474 94684
1 32711U 08012A   21045.68943094  .00000030  00000-0  00000-0 0  9993
2 32711  54.5499 227.7470 0145960 225.8222 132.9544  2.00571485 94697
1 32711U 08012A   21046.18798834  .00000035  00000-0  00000-0 0  9994
2 32711  54.5498 227.7270 0146008 225.8206 132.9554  2.00571528 94701
1 32711U 08012A   21046.18798841  .00000035  00000-0  00000-0 0  9992
2 32711  54.5498 227.7270 0146004 225.8211 132.9549  2.00571521 94700
1 32711U 08012A   21046.68654627  .00000040  00000-0  00000-0 0  9996
2 32711  54.5498 227.7069 0146031 225.8248 132.9512  2.00571547 94715
1 32711U 08012A   21047.68366346  .00000052  00000-0  00000-0 0  9998
2 32711  54.5496 227.6669 0146078 225.8326 132.9443  2.00571584 94732
1 32711U 08012A   21048.68078166  .00000064  00000-0  00000-0 0  9992
2 32711  54.5494 227.6268 0146106 225.8453 132.9336  2.00571602 94752
1 32711U 08012A   21049.17934100  .00000068  00000-0  00000-0 0  9990
2 32711  54.5493 227.6068 0146131 225.8433 132.9368  2.00571637 94769
1 32711U 08012A   21049.17934104  .00000068  00000-0  00000-0 0  9994
2 32711  54.5493 227.6068 0146129 225.8439 132.9362  2.00571633 94762
1 32711U 08012A   21050.17645938  .00000076  00000-0  00000-0 0  9999
2 32711  54.5491 227.5667 0146161 225.8555 132.9268  2.00571647 94781
1 32711U 08012A   21051.17357703  .00000080  00000-0  00000-0 0  9995
2 32711  54.5489 227.5267 0146221 225.8600 132.9238  2.00571665 94802
1 32711U 08012A   21051.67213491  .00000081  00000-0  00000-0 0  9996
2 32711  54.5488 227.5067 0146232 225.8683 132.9159  2.00571667 94817
1 32711U 08012A   21052.17069249  .00000080  00000-0  00000-0 0  9991
2 32711  54.5487 227.4867 0146277 225.8690 132.9151  2.00571673 94820
1 32711U 08012A   21052.17069254  .00000080  00000-0  00000-0 0  9997
2 32711  54.5487 227.4867 0146274 225.8699 132.9142  2.00571673 94826
1 32711U 08012A   21053.16780579  .00000078  00000-0  00000+0 0  9993
2 32711  54.5485 227.4467 0146325 225.8808 132.9020  2.00571676 94827
1 32711U 08012A   21053.16780579  .00000078  00000-0  00000-0 0  9994
2 32711  54.5485 227.4467 0146325 225.8808 132.9020  2.00571676 94849
1 32711U 08012A   21053.66636124  .00000075  00000-0  00000-0 0  9992
2 32711  54.5484 227.4266 0146338 225.8883 132.8932  2.00571679 94857
1 32711U 08012A   21054.16491608  .00000073  00000-0  00000-0 0  9992
2 32711  54.5483 227.4066 0146381 225.8897 132.8900  2.00571682 94867
1 32711U 08012A   21054.16491627  .00000073  00000-0  00000-0 0  9993
2 32711  54.5483 227.4066 0146374 225.8909 132.8888  2.00571682 94868
1 32711U 08012A   21054.66347063  .00000069  00000-0  00000-0 0  9997
2 32711  54.5482 227.3865 0146396 225.8963 132.8812  2.00571684 94877
1 32711U 08012A   21055.66057787  .00000063  00000-0  00000-0 0  9993
2 32711  54.5481 227.3465 0146440 225.9085 132.8636  2.00571684 94894
1 32711U 08012A   21056.15913091  .00000059  00000-0  00000-0 0  9992
2 32711  54.5480 227.3265 0146481 225.9093 132.8596  2.00571684 94902
1 32711U 08012A   21056.15913099  .00000059  00000-0  00000-0 0  9990
2 32711  54.5480 227.3265 0146478 225.9100 132.8589  2.00571684 94909
1 32711U 08012A   21057.15623519  .00000053  00000-0  00000-0 0  9990
2 32711  54.5478 227.2864 0146521 225.9215 132.8410  2.00571736 94929
1 32711U 08012A   21057.65478810  .00000051  00000-0  00000-0 0  9995
2 32711  54.5477 227.2664 0146540 225.9283 132.8310  2.00571736 94932
1 32711U 08012A   21058.15334132  .00000050  00000-0  00000-0 0  9998
2 32711  54.5476 227.2464 0146568 225.9300 132.8265  2.00571742 94946
1 32711U 08012A   21058.65189495  .00000049  00000-0  00000-0 0  9991
2 32711  54.5475 227.2263 0146586 225.9371 132.8169  2.00571744 94956
1 32711U 08012A   21059.15044904  .00000049  00000-0  00000-0 0  9992
2 32711  54.5475 227.2063 0146623 225.9376 132.8143  2.00571754 94943
1 32711U 08012A   21059.64900408  .00000049  00000-0  00000-0 0  9996
2 32711  54.5474 227.1863 0146633 225.9464 132.8039  2.00571755 94976
1 32711U 08012A   21060.14755945  .00000051  00000-0  00000-0 0  9990
2 32711  54.5473 227.1663 0146680 225.9465 132.8026  2.00571769 94988
1 32711U 08012A   21060.14755954  .00000051  00000-0  00000-0 0  9990
2 32711  54.5473 227.1663 0146676 225.9469 132.8022  2.00571767 94981
1 32711U 08012A   21061.64323058  .00000057  00000-0  00000-0 0  9998
2 32711  54.5470 227.1062 0146741 225.9658 132.7832  2.00571788 95010
1 32711U 08012A   21062.14178841  .00000060  00000-0  00000-0 0  9996
2 32711  54.5469 227.0862 0146789 225.9667 132.7830  2.00571809 95020
1 32711U 08012A   21062.14178858  .00000060  00000-0  00000-0 0  9994
2 32711  54.5469 227.0862 0146780 225.9687 132.7809  2.00571803 95023
1 32711U 08012A   21062.64034662  .00000062  00000-0  00000-0 0  9995
2 32711  54.5468 227.0662 0146821 225.9717 132.7788  2.00571822 95038
1 32711U 08012A   21064.13602095  .00000063  00000-0  00000-0 0  9993
2 32711  54.5464 227.0062 0146899 225.9870 132.7661  2.00571866 95064
1 32711U 08012A   21065.13313477  .00000057  00000-0  00000-0 0  9990
2 32711  54.5462 226.9661 0146935 226.0014 132.7520  2.00571890 95081
1 32711U 08012A   21065.63169063  .00000052  00000-0  00000-0 0  9990
2 32711  54.5461 226.9461 0146961 226.0064 132.7464  2.00571910 95093
1 32711U 08012A   21066.13024552  .00000046  00000-0  00000-0 0  9992
2 32711  54.5460 226.9261 0146993 226.0069 132.7448  2.00571945 95102
1 32711U 08012A   21066.62879989  .00000039  00000-0  00000-0 0  9990
2 32711  54.5459 226.9061 0147006 226.0158 132.7343  2.00571951 95115
1 32711U 08012A   21067.12735253  .00000031  00000-0  00000-0 0  9993
2 32711  54.5458 226.8860 0147045 226.0171 132.7309  2.00572021 95120
1 32711U 08012A   21067.62590555  .00000023  00000-0  00000-0 0  9993
2 32711  54.5457 226.8660 0147065 226.0249 132.7206  2.00572030 95132
1 32711U 08012A   21068.12445821  .00000014  00000-0  00000-0 0  9994
2 32711  54.5455 226.8460 0147098 226.0252 132.7176  2.00572068 95146
1 32711U 08012A   21068.62301056  .00000006  00000-0  00000-0 0  9991
2 32711  54.5454 226.8260 0147113 226.0335 132.7064  2.00572075 95158
1 32711U 08012A   21069.12156282 -.00000001  00000-0  00000-0 0  9992
2 32711  54.5453 226.8060 0147139 226.0378 132.6992  2.00572102 95161
1 32711U 08012A   21069.62011521 -.00000007  00000-0  00000-0 0  9999
2 32711  54.5452 226.7860 0147178 226.0389 132.6953  2.00572141 95173
1 32711U 08012A   21070.11866779 -.00000012  00000-0  00000-0 0  9994
2 32711  54.5451 226.7660 0147213 226.0433 132.6882  2.00572168 95181
1 32711U 08012A   21070.61722074 -.00000015  00000-0  00000-0 0  9991
2 32711  54.5450 226.7460 0147246 226.0484 132.6807  2.00572194 95197
1 32711U 08012A   21070.61722079 -.00000015  00000-0  00000-0 0  9996
2 32711  54.5450 226.7460 0147227 226.0518 132.6774  2.00572176 95197
1 32711U 08012A   21071.61432836 -.00000017  00000-0  00000-0 0  9998
2 32711  54.5448 226.7060 0147287 226.0617 132.6641  2.00572227 95219
1 32711U 08012A   21072.11288307 -.00000016  00000-0  00000-0 0  9995
2 32711  54.5446 226.6860 0147334 226.0644 132.6603  2.00572266 95229
1 32711U 08012A   21072.61143838 -.00000013  00000-0  00000-0 0  9996
2 32711  54.5445 226.6660 0147361 226.0699 132.6543  2.00572290 95237
1 32711U 08012A   21073.10999419 -.00000010  00000-0  00000-0 0  9992
2 32711  54.5444 226.6461 0147400 226.0760 132.6481  2.00572320 95244
1 32711U 08012A   21074.10710775  .00000000  00000-0  00000-0 0  9997
2 32711  54.5442 226.6061 0147464 226.0880 132.6374  2.00572361 95269
1 32711U 08012A   21074.60566525  .00000006  00000-0  00000-0 0  9990
2 32711  54.5441 226.5861 0147474 226.0965 132.6301  2.00572365 95275
1 32711U 08012A   21075.60278133  .00000018  00000-0  00000-0 0  9999
2 32711  54.5438 226.5461 0147530 226.1072 132.6227  2.00572403 95292
1 32711U 08012A   21075.60278134  .00000018  00000-0  00000-0 0  9990
2 32711  54.5438 226.5461 0147529 226.1078 132.6221  2.00572401 95298
1 32711U 08012A   21076.10133973  .00000023  00000-0  00000-0 0  9993
2 32711  54.5437 226.5261 0147584 226.1105 132.6211  2.00572426 95305
1 32711U 08012A   21076.59989797  .00000028  00000-0  00000-0 0  9994
2 32711  54.5436 226.5061 0147597 226.1193 132.6143  2.00572430 95313
1 32711U 08012A   21077.59701446  .00000034  00000-0  00000-0 0  9995
2 32711  54.5434 226.4661 0147659 226.1288 132.6085  2.00572456 95335
1 32711U 08012A   21077.59701449  .00000034  00000-0  00000-0 0  9998
2 32711  54.5434 226.4661 0147657 226.1297 132.6077  2.00572453 95331
